; HotWire Sender — aile multi-panneaux (mode continu)
; 3 sections, 2 panneau(x)
; Envergure totale : 600.0 mm
; Section 0 : 12% JOUKOWSKI - Y=0.0 mm - corde 200.0 mm - twist +0.0° - offset (X=+0.0, Y=+0.0)
; Section 1 : 12% JOUKOWSKI - Y=300.0 mm - corde 200.0 mm - twist +0.0° - offset (X=+0.0, Y=+0.0)
; Section 2 : 12% JOUKOWSKI - Y=600.0 mm - corde 200.0 mm - twist +0.0° - offset (X=+0.0, Y=+0.0)
; Bloc machine : root_x=150.0 tip_x=850.0 wire=1000.0
; Avance F=200 mm/min, fil chaud S=500
G21 G90 G94

; ========== Panneau 1/2 ==========
G0 X200.000 Y80.000 A200.000 Z80.000
G0 X200.000 Y20.000 A200.000 Z20.000
M3 S500
G1 X200.000 Y0.000 A200.000 Z0.000 F200
G1 X197.949 Y0.038 A197.949 Z0.038
G1 X195.900 Y0.106 A195.900 Z0.106
G1 X193.851 Y0.193 A193.851 Z0.193
G1 X191.802 Y0.297 A191.802 Z0.297
G1 X189.755 Y0.413 A189.755 Z0.413
G1 X187.707 Y0.538 A187.707 Z0.538
G1 X185.661 Y0.674 A185.661 Z0.674
G1 X183.615 Y0.819 A183.615 Z0.819
G1 X181.570 Y0.970 A181.570 Z0.970
G1 X179.525 Y1.131 A179.525 Z1.131
G1 X177.481 Y1.295 A177.481 Z1.295
G1 X175.437 Y1.467 A175.437 Z1.467
G1 X173.394 Y1.644 A173.394 Z1.644
G1 X171.351 Y1.825 A171.351 Z1.825
G1 X169.308 Y2.013 A169.308 Z2.013
G1 X167.266 Y2.201 A167.266 Z2.201
G1 X165.225 Y2.397 A165.225 Z2.397
G1 X163.183 Y2.595 A163.183 Z2.595
G1 X161.142 Y2.794 A161.142 Z2.794
G1 X159.101 Y2.999 A159.101 Z2.999
G1 X157.061 Y3.205 A157.061 Z3.205
G1 X155.020 Y3.413 A155.020 Z3.413
G1 X152.980 Y3.624 A152.980 Z3.624
G1 X150.940 Y3.836 A150.940 Z3.836
G1 X148.900 Y4.050 A148.900 Z4.050
G1 X146.861 Y4.266 A146.861 Z4.266
G1 X144.821 Y4.481 A144.821 Z4.481
G1 X142.782 Y4.698 A142.782 Z4.698
G1 X140.742 Y4.916 A140.742 Z4.916
G1 X138.703 Y5.134 A138.703 Z5.134
G1 X136.664 Y5.353 A136.664 Z5.353
G1 X134.624 Y5.571 A134.624 Z5.571
G1 X132.585 Y5.789 A132.585 Z5.789
G1 X130.546 Y6.007 A130.546 Z6.007
G1 X128.506 Y6.224 A128.506 Z6.224
G1 X126.467 Y6.440 A126.467 Z6.440
G1 X124.427 Y6.657 A124.427 Z6.657
G1 X122.387 Y6.869 A122.387 Z6.869
G1 X120.347 Y7.082 A120.347 Z7.082
G1 X118.308 Y7.294 A118.308 Z7.294
G1 X116.267 Y7.503 A116.267 Z7.503
G1 X114.227 Y7.709 A114.227 Z7.709
G1 X112.186 Y7.915 A112.186 Z7.915
G1 X110.145 Y8.119 A110.145 Z8.119
G1 X108.104 Y8.316 A108.104 Z8.316
G1 X106.062 Y8.513 A106.062 Z8.513
G1 X104.021 Y8.710 A104.021 Z8.710
G1 X101.979 Y8.898 A101.979 Z8.898
G1 X99.936 Y9.084 A99.936 Z9.084
G1 X97.893 Y9.269 A97.893 Z9.269
G1 X95.851 Y9.450 A95.851 Z9.450
G1 X93.807 Y9.621 A93.807 Z9.621
G1 X91.763 Y9.793 A91.763 Z9.793
G1 X89.719 Y9.964 A89.719 Z9.964
G1 X87.674 Y10.119 A87.674 Z10.119
G1 X85.629 Y10.273 A85.629 Z10.273
G1 X83.584 Y10.428 A83.584 Z10.428
G1 X81.538 Y10.571 A81.538 Z10.571
G1 X79.491 Y10.705 A79.491 Z10.705
G1 X77.445 Y10.839 A77.445 Z10.839
G1 X75.398 Y10.968 A75.398 Z10.968
G1 X73.350 Y11.079 A73.350 Z11.079
G1 X71.302 Y11.190 A71.302 Z11.190
G1 X69.254 Y11.300 A69.254 Z11.300
G1 X67.205 Y11.386 A67.205 Z11.386
G1 X65.155 Y11.470 A65.155 Z11.470
G1 X63.106 Y11.554 A63.106 Z11.554
G1 X61.056 Y11.616 A61.056 Z11.616
G1 X59.006 Y11.669 A59.006 Z11.669
G1 X56.956 Y11.723 A56.956 Z11.723
G1 X54.905 Y11.755 A54.905 Z11.755
G1 X52.854 Y11.774 A52.854 Z11.774
G1 X50.803 Y11.793 A50.803 Z11.793
G1 X48.752 Y11.788 A48.752 Z11.788
G1 X46.702 Y11.768 A46.702 Z11.768
G1 X44.651 Y11.747 A44.651 Z11.747
G1 X42.601 Y11.695 A42.601 Z11.695
G1 X40.551 Y11.631 A40.551 Z11.631
G1 X38.501 Y11.567 A38.501 Z11.567
G1 X36.453 Y11.455 A36.453 Z11.455
G1 X34.405 Y11.341 A34.405 Z11.341
G1 X32.359 Y11.207 A32.359 Z11.207
G1 X30.315 Y11.036 A30.315 Z11.036
G1 X28.271 Y10.866 A28.271 Z10.866
G1 X26.233 Y10.638 A26.233 Z10.638
G1 X24.195 Y10.404 A24.195 Z10.404
G1 X22.164 Y10.124 A22.164 Z10.124
G1 X20.136 Y9.816 A20.136 Z9.816
G1 X18.116 Y9.467 A18.116 Z9.467
G1 X16.103 Y9.073 A16.103 Z9.073
G1 X14.102 Y8.625 A14.102 Z8.625
G1 X12.111 Y8.131 A12.111 Z8.131
G1 X10.148 Y7.541 A10.148 Z7.541
G1 X8.203 Y6.893 A8.203 Z6.893
G1 X6.298 Y6.133 A6.298 Z6.133
G1 X4.465 Y5.216 A4.465 Z5.216
G1 X2.736 Y4.119 A2.736 Z4.119
G1 X1.213 Y2.757 A1.213 Z2.757
G1 X0.194 Y1.007 A0.194 Z1.007
G1 X0.194 Y-1.007 A0.194 Z-1.007
G1 X1.213 Y-2.757 A1.213 Z-2.757
G1 X2.736 Y-4.119 A2.736 Z-4.119
G1 X4.465 Y-5.216 A4.465 Z-5.216
G1 X6.298 Y-6.133 A6.298 Z-6.133
G1 X8.203 Y-6.893 A8.203 Z-6.893
G1 X10.148 Y-7.541 A10.148 Z-7.541
G1 X12.111 Y-8.131 A12.111 Z-8.131
G1 X14.102 Y-8.625 A14.102 Z-8.625
G1 X16.103 Y-9.073 A16.103 Z-9.073
G1 X18.116 Y-9.467 A18.116 Z-9.467
G1 X20.136 Y-9.816 A20.136 Z-9.816
G1 X22.164 Y-10.124 A22.164 Z-10.124
G1 X24.195 Y-10.404 A24.195 Z-10.404
G1 X26.233 Y-10.638 A26.233 Z-10.638
G1 X28.271 Y-10.866 A28.271 Z-10.866
G1 X30.315 Y-11.036 A30.315 Z-11.036
G1 X32.359 Y-11.207 A32.359 Z-11.207
G1 X34.405 Y-11.341 A34.405 Z-11.341
G1 X36.453 Y-11.455 A36.453 Z-11.455
G1 X38.501 Y-11.567 A38.501 Z-11.567
G1 X40.551 Y-11.631 A40.551 Z-11.631
G1 X42.601 Y-11.695 A42.601 Z-11.695
G1 X44.651 Y-11.747 A44.651 Z-11.747
G1 X46.702 Y-11.768 A46.702 Z-11.768
G1 X48.752 Y-11.788 A48.752 Z-11.788
G1 X50.803 Y-11.793 A50.803 Z-11.793
G1 X52.854 Y-11.774 A52.854 Z-11.774
G1 X54.905 Y-11.755 A54.905 Z-11.755
G1 X56.956 Y-11.723 A56.956 Z-11.723
G1 X59.006 Y-11.669 A59.006 Z-11.669
G1 X61.056 Y-11.616 A61.056 Z-11.616
G1 X63.106 Y-11.554 A63.106 Z-11.554
G1 X65.155 Y-11.470 A65.155 Z-11.470
G1 X67.205 Y-11.386 A67.205 Z-11.386
G1 X69.254 Y-11.300 A69.254 Z-11.300
G1 X71.302 Y-11.190 A71.302 Z-11.190
G1 X73.350 Y-11.079 A73.350 Z-11.079
G1 X75.398 Y-10.968 A75.398 Z-10.968
G1 X77.445 Y-10.839 A77.445 Z-10.839
G1 X79.491 Y-10.705 A79.491 Z-10.705
G1 X81.538 Y-10.571 A81.538 Z-10.571
G1 X83.584 Y-10.428 A83.584 Z-10.428
G1 X85.629 Y-10.273 A85.629 Z-10.273
G1 X87.674 Y-10.119 A87.674 Z-10.119
G1 X89.719 Y-9.964 A89.719 Z-9.964
G1 X91.763 Y-9.793 A91.763 Z-9.793
G1 X93.807 Y-9.621 A93.807 Z-9.621
G1 X95.851 Y-9.450 A95.851 Z-9.450
G1 X97.893 Y-9.269 A97.893 Z-9.269
G1 X99.936 Y-9.084 A99.936 Z-9.084
G1 X101.979 Y-8.898 A101.979 Z-8.898
G1 X104.021 Y-8.710 A104.021 Z-8.710
G1 X106.062 Y-8.513 A106.062 Z-8.513
G1 X108.104 Y-8.316 A108.104 Z-8.316
G1 X110.145 Y-8.119 A110.145 Z-8.119
G1 X112.186 Y-7.915 A112.186 Z-7.915
G1 X114.227 Y-7.709 A114.227 Z-7.709
G1 X116.267 Y-7.503 A116.267 Z-7.503
G1 X118.308 Y-7.294 A118.308 Z-7.294
G1 X120.347 Y-7.082 A120.347 Z-7.082
G1 X122.387 Y-6.869 A122.387 Z-6.869
G1 X124.427 Y-6.657 A124.427 Z-6.657
G1 X126.467 Y-6.440 A126.467 Z-6.440
G1 X128.506 Y-6.224 A128.506 Z-6.224
G1 X130.546 Y-6.007 A130.546 Z-6.007
G1 X132.585 Y-5.789 A132.585 Z-5.789
G1 X134.624 Y-5.571 A134.624 Z-5.571
G1 X136.664 Y-5.353 A136.664 Z-5.353
G1 X138.703 Y-5.134 A138.703 Z-5.134
G1 X140.742 Y-4.916 A140.742 Z-4.916
G1 X142.782 Y-4.698 A142.782 Z-4.698
G1 X144.821 Y-4.481 A144.821 Z-4.481
G1 X146.861 Y-4.266 A146.861 Z-4.266
G1 X148.900 Y-4.050 A148.900 Z-4.050
G1 X150.940 Y-3.836 A150.940 Z-3.836
G1 X152.980 Y-3.624 A152.980 Z-3.624
G1 X155.020 Y-3.413 A155.020 Z-3.413
G1 X157.061 Y-3.205 A157.061 Z-3.205
G1 X159.101 Y-2.999 A159.101 Z-2.999
G1 X161.142 Y-2.794 A161.142 Z-2.794
G1 X163.183 Y-2.595 A163.183 Z-2.595
G1 X165.225 Y-2.397 A165.225 Z-2.397
G1 X167.266 Y-2.201 A167.266 Z-2.201
G1 X169.308 Y-2.013 A169.308 Z-2.013
G1 X171.351 Y-1.825 A171.351 Z-1.825
G1 X173.394 Y-1.644 A173.394 Z-1.644
G1 X175.437 Y-1.467 A175.437 Z-1.467
G1 X177.481 Y-1.295 A177.481 Z-1.295
G1 X179.525 Y-1.131 A179.525 Z-1.131
G1 X181.570 Y-0.970 A181.570 Z-0.970
G1 X183.615 Y-0.819 A183.615 Z-0.819
G1 X185.661 Y-0.674 A185.661 Z-0.674
G1 X187.707 Y-0.538 A187.707 Z-0.538
G1 X189.755 Y-0.413 A189.755 Z-0.413
G1 X191.802 Y-0.297 A191.802 Z-0.297
G1 X193.851 Y-0.193 A193.851 Z-0.193
G1 X195.900 Y-0.106 A195.900 Z-0.106
G1 X197.949 Y-0.038 A197.949 Z-0.038
G1 X200.000 Y0.000 A200.000 Z0.000
G1 X200.000 Y20.000 A200.000 Z20.000
M5
G0 X0.000 Y80.000 A0.000 Z80.000
; @HW_PAUSE: Repositionner le bloc de mousse pour le panneau 2/2, puis cliquez OK pour continuer.

; ========== Panneau 2/2 ==========
G0 X200.000 Y80.000 A200.000 Z80.000
G0 X200.000 Y20.000 A200.000 Z20.000
M3 S500
G1 X200.000 Y0.000 A200.000 Z0.000 F200
G1 X197.949 Y0.038 A197.949 Z0.038
G1 X195.900 Y0.106 A195.900 Z0.106
G1 X193.851 Y0.193 A193.851 Z0.193
G1 X191.802 Y0.297 A191.802 Z0.297
G1 X189.755 Y0.413 A189.755 Z0.413
G1 X187.707 Y0.538 A187.707 Z0.538
G1 X185.661 Y0.674 A185.661 Z0.674
G1 X183.615 Y0.819 A183.615 Z0.819
G1 X181.570 Y0.970 A181.570 Z0.970
G1 X179.525 Y1.131 A179.525 Z1.131
G1 X177.481 Y1.295 A177.481 Z1.295
G1 X175.437 Y1.467 A175.437 Z1.467
G1 X173.394 Y1.644 A173.394 Z1.644
G1 X171.351 Y1.825 A171.351 Z1.825
G1 X169.308 Y2.013 A169.308 Z2.013
G1 X167.266 Y2.201 A167.266 Z2.201
G1 X165.225 Y2.397 A165.225 Z2.397
G1 X163.183 Y2.595 A163.183 Z2.595
G1 X161.142 Y2.794 A161.142 Z2.794
G1 X159.101 Y2.999 A159.101 Z2.999
G1 X157.061 Y3.205 A157.061 Z3.205
G1 X155.020 Y3.413 A155.020 Z3.413
G1 X152.980 Y3.624 A152.980 Z3.624
G1 X150.940 Y3.836 A150.940 Z3.836
G1 X148.900 Y4.050 A148.900 Z4.050
G1 X146.861 Y4.266 A146.861 Z4.266
G1 X144.821 Y4.481 A144.821 Z4.481
G1 X142.782 Y4.698 A142.782 Z4.698
G1 X140.742 Y4.916 A140.742 Z4.916
G1 X138.703 Y5.134 A138.703 Z5.134
G1 X136.664 Y5.353 A136.664 Z5.353
G1 X134.624 Y5.571 A134.624 Z5.571
G1 X132.585 Y5.789 A132.585 Z5.789
G1 X130.546 Y6.007 A130.546 Z6.007
G1 X128.506 Y6.224 A128.506 Z6.224
G1 X126.467 Y6.440 A126.467 Z6.440
G1 X124.427 Y6.657 A124.427 Z6.657
G1 X122.387 Y6.869 A122.387 Z6.869
G1 X120.347 Y7.082 A120.347 Z7.082
G1 X118.308 Y7.294 A118.308 Z7.294
G1 X116.267 Y7.503 A116.267 Z7.503
G1 X114.227 Y7.709 A114.227 Z7.709
G1 X112.186 Y7.915 A112.186 Z7.915
G1 X110.145 Y8.119 A110.145 Z8.119
G1 X108.104 Y8.316 A108.104 Z8.316
G1 X106.062 Y8.513 A106.062 Z8.513
G1 X104.021 Y8.710 A104.021 Z8.710
G1 X101.979 Y8.898 A101.979 Z8.898
G1 X99.936 Y9.084 A99.936 Z9.084
G1 X97.893 Y9.269 A97.893 Z9.269
G1 X95.851 Y9.450 A95.851 Z9.450
G1 X93.807 Y9.621 A93.807 Z9.621
G1 X91.763 Y9.793 A91.763 Z9.793
G1 X89.719 Y9.964 A89.719 Z9.964
G1 X87.674 Y10.119 A87.674 Z10.119
G1 X85.629 Y10.273 A85.629 Z10.273
G1 X83.584 Y10.428 A83.584 Z10.428
G1 X81.538 Y10.571 A81.538 Z10.571
G1 X79.491 Y10.705 A79.491 Z10.705
G1 X77.445 Y10.839 A77.445 Z10.839
G1 X75.398 Y10.968 A75.398 Z10.968
G1 X73.350 Y11.079 A73.350 Z11.079
G1 X71.302 Y11.190 A71.302 Z11.190
G1 X69.254 Y11.300 A69.254 Z11.300
G1 X67.205 Y11.386 A67.205 Z11.386
G1 X65.155 Y11.470 A65.155 Z11.470
G1 X63.106 Y11.554 A63.106 Z11.554
G1 X61.056 Y11.616 A61.056 Z11.616
G1 X59.006 Y11.669 A59.006 Z11.669
G1 X56.956 Y11.723 A56.956 Z11.723
G1 X54.905 Y11.755 A54.905 Z11.755
G1 X52.854 Y11.774 A52.854 Z11.774
G1 X50.803 Y11.793 A50.803 Z11.793
G1 X48.752 Y11.788 A48.752 Z11.788
G1 X46.702 Y11.768 A46.702 Z11.768
G1 X44.651 Y11.747 A44.651 Z11.747
G1 X42.601 Y11.695 A42.601 Z11.695
G1 X40.551 Y11.631 A40.551 Z11.631
G1 X38.501 Y11.567 A38.501 Z11.567
G1 X36.453 Y11.455 A36.453 Z11.455
G1 X34.405 Y11.341 A34.405 Z11.341
G1 X32.359 Y11.207 A32.359 Z11.207
G1 X30.315 Y11.036 A30.315 Z11.036
G1 X28.271 Y10.866 A28.271 Z10.866
G1 X26.233 Y10.638 A26.233 Z10.638
G1 X24.195 Y10.404 A24.195 Z10.404
G1 X22.164 Y10.124 A22.164 Z10.124
G1 X20.136 Y9.816 A20.136 Z9.816
G1 X18.116 Y9.467 A18.116 Z9.467
G1 X16.103 Y9.073 A16.103 Z9.073
G1 X14.102 Y8.625 A14.102 Z8.625
G1 X12.111 Y8.131 A12.111 Z8.131
G1 X10.148 Y7.541 A10.148 Z7.541
G1 X8.203 Y6.893 A8.203 Z6.893
G1 X6.298 Y6.133 A6.298 Z6.133
G1 X4.465 Y5.216 A4.465 Z5.216
G1 X2.736 Y4.119 A2.736 Z4.119
G1 X1.213 Y2.757 A1.213 Z2.757
G1 X0.194 Y1.007 A0.194 Z1.007
G1 X0.194 Y-1.007 A0.194 Z-1.007
G1 X1.213 Y-2.757 A1.213 Z-2.757
G1 X2.736 Y-4.119 A2.736 Z-4.119
G1 X4.465 Y-5.216 A4.465 Z-5.216
G1 X6.298 Y-6.133 A6.298 Z-6.133
G1 X8.203 Y-6.893 A8.203 Z-6.893
G1 X10.148 Y-7.541 A10.148 Z-7.541
G1 X12.111 Y-8.131 A12.111 Z-8.131
G1 X14.102 Y-8.625 A14.102 Z-8.625
G1 X16.103 Y-9.073 A16.103 Z-9.073
G1 X18.116 Y-9.467 A18.116 Z-9.467
G1 X20.136 Y-9.816 A20.136 Z-9.816
G1 X22.164 Y-10.124 A22.164 Z-10.124
G1 X24.195 Y-10.404 A24.195 Z-10.404
G1 X26.233 Y-10.638 A26.233 Z-10.638
G1 X28.271 Y-10.866 A28.271 Z-10.866
G1 X30.315 Y-11.036 A30.315 Z-11.036
G1 X32.359 Y-11.207 A32.359 Z-11.207
G1 X34.405 Y-11.341 A34.405 Z-11.341
G1 X36.453 Y-11.455 A36.453 Z-11.455
G1 X38.501 Y-11.567 A38.501 Z-11.567
G1 X40.551 Y-11.631 A40.551 Z-11.631
G1 X42.601 Y-11.695 A42.601 Z-11.695
G1 X44.651 Y-11.747 A44.651 Z-11.747
G1 X46.702 Y-11.768 A46.702 Z-11.768
G1 X48.752 Y-11.788 A48.752 Z-11.788
G1 X50.803 Y-11.793 A50.803 Z-11.793
G1 X52.854 Y-11.774 A52.854 Z-11.774
G1 X54.905 Y-11.755 A54.905 Z-11.755
G1 X56.956 Y-11.723 A56.956 Z-11.723
G1 X59.006 Y-11.669 A59.006 Z-11.669
G1 X61.056 Y-11.616 A61.056 Z-11.616
G1 X63.106 Y-11.554 A63.106 Z-11.554
G1 X65.155 Y-11.470 A65.155 Z-11.470
G1 X67.205 Y-11.386 A67.205 Z-11.386
G1 X69.254 Y-11.300 A69.254 Z-11.300
G1 X71.302 Y-11.190 A71.302 Z-11.190
G1 X73.350 Y-11.079 A73.350 Z-11.079
G1 X75.398 Y-10.968 A75.398 Z-10.968
G1 X77.445 Y-10.839 A77.445 Z-10.839
G1 X79.491 Y-10.705 A79.491 Z-10.705
G1 X81.538 Y-10.571 A81.538 Z-10.571
G1 X83.584 Y-10.428 A83.584 Z-10.428
G1 X85.629 Y-10.273 A85.629 Z-10.273
G1 X87.674 Y-10.119 A87.674 Z-10.119
G1 X89.719 Y-9.964 A89.719 Z-9.964
G1 X91.763 Y-9.793 A91.763 Z-9.793
G1 X93.807 Y-9.621 A93.807 Z-9.621
G1 X95.851 Y-9.450 A95.851 Z-9.450
G1 X97.893 Y-9.269 A97.893 Z-9.269
G1 X99.936 Y-9.084 A99.936 Z-9.084
G1 X101.979 Y-8.898 A101.979 Z-8.898
G1 X104.021 Y-8.710 A104.021 Z-8.710
G1 X106.062 Y-8.513 A106.062 Z-8.513
G1 X108.104 Y-8.316 A108.104 Z-8.316
G1 X110.145 Y-8.119 A110.145 Z-8.119
G1 X112.186 Y-7.915 A112.186 Z-7.915
G1 X114.227 Y-7.709 A114.227 Z-7.709
G1 X116.267 Y-7.503 A116.267 Z-7.503
G1 X118.308 Y-7.294 A118.308 Z-7.294
G1 X120.347 Y-7.082 A120.347 Z-7.082
G1 X122.387 Y-6.869 A122.387 Z-6.869
G1 X124.427 Y-6.657 A124.427 Z-6.657
G1 X126.467 Y-6.440 A126.467 Z-6.440
G1 X128.506 Y-6.224 A128.506 Z-6.224
G1 X130.546 Y-6.007 A130.546 Z-6.007
G1 X132.585 Y-5.789 A132.585 Z-5.789
G1 X134.624 Y-5.571 A134.624 Z-5.571
G1 X136.664 Y-5.353 A136.664 Z-5.353
G1 X138.703 Y-5.134 A138.703 Z-5.134
G1 X140.742 Y-4.916 A140.742 Z-4.916
G1 X142.782 Y-4.698 A142.782 Z-4.698
G1 X144.821 Y-4.481 A144.821 Z-4.481
G1 X146.861 Y-4.266 A146.861 Z-4.266
G1 X148.900 Y-4.050 A148.900 Z-4.050
G1 X150.940 Y-3.836 A150.940 Z-3.836
G1 X152.980 Y-3.624 A152.980 Z-3.624
G1 X155.020 Y-3.413 A155.020 Z-3.413
G1 X157.061 Y-3.205 A157.061 Z-3.205
G1 X159.101 Y-2.999 A159.101 Z-2.999
G1 X161.142 Y-2.794 A161.142 Z-2.794
G1 X163.183 Y-2.595 A163.183 Z-2.595
G1 X165.225 Y-2.397 A165.225 Z-2.397
G1 X167.266 Y-2.201 A167.266 Z-2.201
G1 X169.308 Y-2.013 A169.308 Z-2.013
G1 X171.351 Y-1.825 A171.351 Z-1.825
G1 X173.394 Y-1.644 A173.394 Z-1.644
G1 X175.437 Y-1.467 A175.437 Z-1.467
G1 X177.481 Y-1.295 A177.481 Z-1.295
G1 X179.525 Y-1.131 A179.525 Z-1.131
G1 X181.570 Y-0.970 A181.570 Z-0.970
G1 X183.615 Y-0.819 A183.615 Z-0.819
G1 X185.661 Y-0.674 A185.661 Z-0.674
G1 X187.707 Y-0.538 A187.707 Z-0.538
G1 X189.755 Y-0.413 A189.755 Z-0.413
G1 X191.802 Y-0.297 A191.802 Z-0.297
G1 X193.851 Y-0.193 A193.851 Z-0.193
G1 X195.900 Y-0.106 A195.900 Z-0.106
G1 X197.949 Y-0.038 A197.949 Z-0.038
G1 X200.000 Y0.000 A200.000 Z0.000
G1 X200.000 Y20.000 A200.000 Z20.000
M5
G0 X0.000 Y80.000 A0.000 Z80.000
M2
